{"fetched_at":"2026-07-10T18:07:53.733Z","source":"https://celestrak.org/NORAD/elements/gp.php?GROUP=planet&FORMAT=JSON","constellation":"superdove","records":[{"OBJECT_NAME":"FLOCK 4Q-16","OBJECT_ID":"2023-174R","EPOCH":"2026-07-09T04:28:13.498176","CLASSIFICATION_TYPE":"U","MEAN_MOTION":15.50194371,"ECCENTRICITY":0.00070189,"INCLINATION":97.3825,"RA_OF_ASC_NODE":278.8187,"ARG_OF_PERICENTER":94.1901,"MEAN_ANOMALY":266.0153,"EPHEMERIS_TYPE":0,"NORAD_CAT_ID":58271,"ELEMENT_SET_NO":999,"REV_AT_EPOCH":14898,"BSTAR":0.0002561243,"MEAN_MOTION_DOT":0.00014376,"MEAN_MOTION_DDOT":0},{"OBJECT_NAME":"FLOCK 4Q-11","OBJECT_ID":"2023-174T","EPOCH":"2026-07-10T04:38:54.136896","CLASSIFICATION_TYPE":"U","MEAN_MOTION":15.50712242,"ECCENTRICITY":0.00067081,"INCLINATION":97.3859,"RA_OF_ASC_NODE":280.4798,"ARG_OF_PERICENTER":86.5059,"MEAN_ANOMALY":273.696,"EPHEMERIS_TYPE":0,"NORAD_CAT_ID":58273,"ELEMENT_SET_NO":999,"REV_AT_EPOCH":14915,"BSTAR":0.00034950119,"MEAN_MOTION_DOT":0.00020028,"MEAN_MOTION_DDOT":0},{"OBJECT_NAME":"FLOCK 4Q-28","OBJECT_ID":"2023-174AA","EPOCH":"2026-07-09T16:28:59.326464","CLASSIFICATION_TYPE":"U","MEAN_MOTION":15.5653002,"ECCENTRICITY":0.00053253,"INCLINATION":97.388,"RA_OF_ASC_NODE":282.6446,"ARG_OF_PERICENTER":80.5118,"MEAN_ANOMALY":279.6738,"EPHEMERIS_TYPE":0,"NORAD_CAT_ID":58280,"ELEMENT_SET_NO":999,"REV_AT_EPOCH":14924,"BSTAR":0.00032479569,"MEAN_MOTION_DOT":0.00022974,"MEAN_MOTION_DDOT":0},{"OBJECT_NAME":"FLOCK 4Q-27","OBJECT_ID":"2023-174AC","EPOCH":"2026-07-09T01:06:54.728928","CLASSIFICATION_TYPE":"U","MEAN_MOTION":15.5669026,"ECCENTRICITY":0.00044859,"INCLINATION":97.3807,"RA_OF_ASC_NODE":281.3932,"ARG_OF_PERICENTER":86.5235,"MEAN_ANOMALY":273.6533,"EPHEMERIS_TYPE":0,"NORAD_CAT_ID":58282,"ELEMENT_SET_NO":999,"REV_AT_EPOCH":14915,"BSTAR":0.00033075974,"MEAN_MOTION_DOT":0.00023535,"MEAN_MOTION_DDOT":0},{"OBJECT_NAME":"FLOCK 4Q-7","OBJECT_ID":"2023-174BQ","EPOCH":"2026-07-08T19:25:07.207680","CLASSIFICATION_TYPE":"U","MEAN_MOTION":15.57050195,"ECCENTRICITY":0.00051665,"INCLINATION":97.3904,"RA_OF_ASC_NODE":282.054,"ARG_OF_PERICENTER":66.5295,"MEAN_ANOMALY":293.6503,"EPHEMERIS_TYPE":0,"NORAD_CAT_ID":58318,"ELEMENT_SET_NO":999,"REV_AT_EPOCH":14911,"BSTAR":0.00041052598,"MEAN_MOTION_DOT":0.00029655,"MEAN_MOTION_DDOT":0},{"OBJECT_NAME":"FLOCK 4Q-2","OBJECT_ID":"2023-174BS","EPOCH":"2026-07-10T07:22:43.811328","CLASSIFICATION_TYPE":"U","MEAN_MOTION":15.50679034,"ECCENTRICITY":0.00052877,"INCLINATION":97.3837,"RA_OF_ASC_NODE":280.3117,"ARG_OF_PERICENTER":66.8105,"MEAN_ANOMALY":293.3703,"EPHEMERIS_TYPE":0,"NORAD_CAT_ID":58320,"ELEMENT_SET_NO":999,"REV_AT_EPOCH":14918,"BSTAR":0.00031479667,"MEAN_MOTION_DOT":0.00017998,"MEAN_MOTION_DDOT":0},{"OBJECT_NAME":"FLOCK 4Q-9","OBJECT_ID":"2023-174BU","EPOCH":"2026-07-09T11:41:24.546624","CLASSIFICATION_TYPE":"U","MEAN_MOTION":15.51132843,"ECCENTRICITY":0.00061787,"INCLINATION":97.3856,"RA_OF_ASC_NODE":279.5754,"ARG_OF_PERICENTER":70.1317,"MEAN_ANOMALY":290.06,"EPHEMERIS_TYPE":0,"NORAD_CAT_ID":58322,"ELEMENT_SET_NO":999,"REV_AT_EPOCH":14904,"BSTAR":0.00038601183,"MEAN_MOTION_DOT":0.00022467,"MEAN_MOTION_DDOT":0},{"OBJECT_NAME":"FLOCK 4Q-4","OBJECT_ID":"2023-174BZ","EPOCH":"2026-07-10T04:56:57.313824","CLASSIFICATION_TYPE":"U","MEAN_MOTION":15.49709782,"ECCENTRICITY":0.00062258,"INCLINATION":97.3823,"RA_OF_ASC_NODE":279.4426,"ARG_OF_PERICENTER":89.4278,"MEAN_ANOMALY":270.7687,"EPHEMERIS_TYPE":0,"NORAD_CAT_ID":58327,"ELEMENT_SET_NO":999,"REV_AT_EPOCH":14912,"BSTAR":0.00034462192,"MEAN_MOTION_DOT":0.00019055,"MEAN_MOTION_DDOT":0},{"OBJECT_NAME":"FLOCK 4Q-13","OBJECT_ID":"2023-174CA","EPOCH":"2026-07-10T04:49:21.289440","CLASSIFICATION_TYPE":"U","MEAN_MOTION":15.5272179,"ECCENTRICITY":0.00062622,"INCLINATION":97.4001,"RA_OF_ASC_NODE":282.7058,"ARG_OF_PERICENTER":70.5001,"MEAN_ANOMALY":289.6928,"EPHEMERIS_TYPE":0,"NORAD_CAT_ID":58328,"ELEMENT_SET_NO":999,"REV_AT_EPOCH":14924,"BSTAR":0.000297062,"MEAN_MOTION_DOT":0.00018269,"MEAN_MOTION_DDOT":0},{"OBJECT_NAME":"FLOCK 4BE-18","OBJECT_ID":"2024-149N","EPOCH":"2026-07-10T04:18:13.375872","CLASSIFICATION_TYPE":"U","MEAN_MOTION":15.42627981,"ECCENTRICITY":0.00048093,"INCLINATION":97.3723,"RA_OF_ASC_NODE":275.1601,"ARG_OF_PERICENTER":158.3301,"MEAN_ANOMALY":201.8151,"EPHEMERIS_TYPE":0,"NORAD_CAT_ID":60480,"ELEMENT_SET_NO":999,"REV_AT_EPOCH":10585,"BSTAR":0.00024256152,"MEAN_MOTION_DOT":0.00010476,"MEAN_MOTION_DDOT":0},{"OBJECT_NAME":"FLOCK 4BE-7","OBJECT_ID":"2024-149P","EPOCH":"2026-07-09T11:51:36.490176","CLASSIFICATION_TYPE":"U","MEAN_MOTION":15.41289725,"ECCENTRICITY":0.00038709,"INCLINATION":97.3753,"RA_OF_ASC_NODE":273.7667,"ARG_OF_PERICENTER":163.9201,"MEAN_ANOMALY":196.217,"EPHEMERIS_TYPE":0,"NORAD_CAT_ID":60481,"ELEMENT_SET_NO":999,"REV_AT_EPOCH":10568,"BSTAR":0.00043952455,"MEAN_MOTION_DOT":0.00018237,"MEAN_MOTION_DDOT":0},{"OBJECT_NAME":"FLOCK 4BE-36","OBJECT_ID":"2024-149U","EPOCH":"2026-07-08T18:38:48.136128","CLASSIFICATION_TYPE":"U","MEAN_MOTION":15.43394438,"ECCENTRICITY":0.00042911,"INCLINATION":97.3738,"RA_OF_ASC_NODE":274.473,"ARG_OF_PERICENTER":170.3083,"MEAN_ANOMALY":189.8249,"EPHEMERIS_TYPE":0,"NORAD_CAT_ID":60486,"ELEMENT_SET_NO":999,"REV_AT_EPOCH":10568,"BSTAR":0.00027967151,"MEAN_MOTION_DOT":0.00012409,"MEAN_MOTION_DDOT":0},{"OBJECT_NAME":"FLOCK 4BE-25","OBJECT_ID":"2024-149V","EPOCH":"2026-07-09T04:37:33.544704","CLASSIFICATION_TYPE":"U","MEAN_MOTION":15.39431125,"ECCENTRICITY":0.00032946,"INCLINATION":97.3792,"RA_OF_ASC_NODE":273.5,"ARG_OF_PERICENTER":156.2094,"MEAN_ANOMALY":203.9304,"EPHEMERIS_TYPE":0,"NORAD_CAT_ID":60487,"ELEMENT_SET_NO":999,"REV_AT_EPOCH":10562,"BSTAR":0.000277744,"MEAN_MOTION_DOT":0.00010797,"MEAN_MOTION_DDOT":0},{"OBJECT_NAME":"FLOCK 4BE-31","OBJECT_ID":"2024-149W","EPOCH":"2026-07-09T01:06:53.876160","CLASSIFICATION_TYPE":"U","MEAN_MOTION":15.44977948,"ECCENTRICITY":0.00033799,"INCLINATION":97.3793,"RA_OF_ASC_NODE":275.6689,"ARG_OF_PERICENTER":166.3128,"MEAN_ANOMALY":193.8213,"EPHEMERIS_TYPE":0,"NORAD_CAT_ID":60488,"ELEMENT_SET_NO":999,"REV_AT_EPOCH":10575,"BSTAR":0.00032502679,"MEAN_MOTION_DOT":0.00015235,"MEAN_MOTION_DDOT":0},{"OBJECT_NAME":"FLOCK 4BE-20","OBJECT_ID":"2024-149X","EPOCH":"2026-07-09T04:00:30.104640","CLASSIFICATION_TYPE":"U","MEAN_MOTION":15.38700104,"ECCENTRICITY":0.00044899,"INCLINATION":97.3689,"RA_OF_ASC_NODE":272.2977,"ARG_OF_PERICENTER":169.4129,"MEAN_ANOMALY":190.7212,"EPHEMERIS_TYPE":0,"NORAD_CAT_ID":60489,"ELEMENT_SET_NO":999,"REV_AT_EPOCH":10559,"BSTAR":0.00029163916,"MEAN_MOTION_DOT":0.00011075,"MEAN_MOTION_DDOT":0},{"OBJECT_NAME":"FLOCK 4BE-23","OBJECT_ID":"2024-149Y","EPOCH":"2026-07-09T00:47:36.042720","CLASSIFICATION_TYPE":"U","MEAN_MOTION":15.38255639,"ECCENTRICITY":0.00040844,"INCLINATION":97.3776,"RA_OF_ASC_NODE":272.5504,"ARG_OF_PERICENTER":173.1683,"MEAN_ANOMALY":186.9618,"EPHEMERIS_TYPE":0,"NORAD_CAT_ID":60490,"ELEMENT_SET_NO":999,"REV_AT_EPOCH":10555,"BSTAR":0.00027962152,"MEAN_MOTION_DOT":0.00010461,"MEAN_MOTION_DDOT":0}]}
